{
    "links": {
        "self": "http://www.neowsapp.com/rest/v1/neo/3618027?api_key=iIulBulltgU6a56xZRHN4H3l9WmuAYTsLGpBGhQ2"
    },
    "id": "3618027",
    "neo_reference_id": "3618027",
    "name": "(2012 VK82)",
    "designation": "2012 VK82",
    "nasa_jpl_url": "http://ssd.jpl.nasa.gov/sbdb.cgi?sstr=3618027",
    "absolute_magnitude_h": 21.2,
    "estimated_diameter": {
        "kilometers": {
            "estimated_diameter_min": 0.1529519353,
            "estimated_diameter_max": 0.3420109247
        },
        "meters": {
            "estimated_diameter_min": 152.9519353442,
            "estimated_diameter_max": 342.0109247198
        },
        "miles": {
            "estimated_diameter_min": 0.095039897,
            "estimated_diameter_max": 0.2125156703
        },
        "feet": {
            "estimated_diameter_min": 501.8108275547,
            "estimated_diameter_max": 1122.0831222578
        }
    },
    "is_potentially_hazardous_asteroid": false,
    "close_approach_data": [
        {
            "close_approach_date": "2008-11-14",
            "close_approach_date_full": "2008-Nov-14 19:47",
            "epoch_date_close_approach": 1226692020000,
            "relative_velocity": {
                "kilometers_per_second": "16.4574670692",
                "kilometers_per_hour": "59246.881449291",
                "miles_per_hour": "36813.7080871997"
            },
            "miss_distance": {
                "astronomical": "0.4544322187",
                "lunar": "176.7741330743",
                "kilometers": "67982091.976894169",
                "miles": "42242113.1616267722"
            },
            "orbiting_body": "Earth"
        },
        {
            "close_approach_date": "2010-11-13",
            "close_approach_date_full": "2010-Nov-13 07:08",
            "epoch_date_close_approach": 1289632080000,
            "relative_velocity": {
                "kilometers_per_second": "16.7051743411",
                "kilometers_per_hour": "60138.6276277962",
                "miles_per_hour": "37367.8044835048"
            },
            "miss_distance": {
                "astronomical": "0.2697469854",
                "lunar": "104.9315773206",
                "kilometers": "40353574.454761098",
                "miles": "25074548.4439272324"
            },
            "orbiting_body": "Earth"
        },
        {
            "close_approach_date": "2012-11-14",
            "close_approach_date_full": "2012-Nov-14 08:14",
            "epoch_date_close_approach": 1352880840000,
            "relative_velocity": {
                "kilometers_per_second": "18.3462734838",
                "kilometers_per_hour": "66046.5845415752",
                "miles_per_hour": "41038.7791558471"
            },
            "miss_distance": {
                "astronomical": "0.2205714068",
                "lunar": "85.8022772452",
                "kilometers": "32997012.640183516",
                "miles": "20503392.8996478808"
            },
            "orbiting_body": "Earth"
        },
        {
            "close_approach_date": "2014-11-18",
            "close_approach_date_full": "2014-Nov-18 19:45",
            "epoch_date_close_approach": 1416339900000,
            "relative_velocity": {
                "kilometers_per_second": "21.574817869",
                "kilometers_per_hour": "77669.3443283528",
                "miles_per_hour": "48260.7100911368"
            },
            "miss_distance": {
                "astronomical": "0.3762885359",
                "lunar": "146.3762404651",
                "kilometers": "56291963.476058533",
                "miles": "34978204.1431444354"
            },
            "orbiting_body": "Earth"
        }
    ],
    "orbital_data": {
        "orbit_id": "9",
        "orbit_determination_date": "2017-04-06 08:47:56",
        "first_observation_date": "2012-11-14",
        "last_observation_date": "2012-12-06",
        "data_arc_in_days": 22,
        "observations_used": 59,
        "orbit_uncertainty": "7",
        "minimum_orbit_intersection": ".209716",
        "jupiter_tisserand_invariant": "4.126",
        "epoch_osculation": "2459000.5",
        "eccentricity": ".3174623199764058",
        "semi_major_axis": "1.608753662666563",
        "inclination": "32.24387037694232",
        "ascending_node_longitude": "58.16612390472415",
        "orbital_period": "745.302794966031",
        "perihelion_distance": "1.098034992645896",
        "perihelion_argument": "306.6701760664065",
        "aphelion_distance": "2.11947233268723",
        "perihelion_time": "2459181.550387283198",
        "mean_anomaly": "272.5481081485519",
        "mean_motion": ".4830251576024318",
        "equinox": "J2000",
        "orbit_class": {
            "orbit_class_type": "AMO",
            "orbit_class_description": "Near-Earth asteroid orbits similar to that of 1221 Amor",
            "orbit_class_range": "1.017 AU < q (perihelion) < 1.3 AU"
        }
    },
    "is_sentry_object": false
}